[{"OBJECT_NAME":"ONEWEB-0061","OBJECT_ID":"2020-020E","EPOCH":"2026-03-09T23:35:14.829792","MEAN_MOTION":13.11417815,"ECCENTRICITY":0.00018294,"INCLINATION":87.8871,"RA_OF_ASC_NODE":40.7746,"ARG_OF_PERICENTER":84.2503,"MEAN_ANOMALY":275.8833,"EPHEMERIS_TYPE":0,"CLASSIFICATION_TYPE":"U","NORAD_CAT_ID":45428,"ELEMENT_SET_NO":999,"REV_AT_EPOCH":28962,"BSTAR":0.0014934654,"MEAN_MOTION_DOT":5.42e-6,"MEAN_MOTION_DDOT":0},{"OBJECT_NAME":"SL-14 DEB","OBJECT_ID":"1991-056H","EPOCH":"2026-03-09T11:35:06.232992","MEAN_MOTION":13.06822582,"ECCENTRICITY":0.00514135,"INCLINATION":82.4151,"RA_OF_ASC_NODE":228.9631,"ARG_OF_PERICENTER":227.9174,"MEAN_ANOMALY":131.7565,"EPHEMERIS_TYPE":0,"CLASSIFICATION_TYPE":"U","NORAD_CAT_ID":45271,"ELEMENT_SET_NO":999,"REV_AT_EPOCH":28881,"BSTAR":-0.00058687374,"MEAN_MOTION_DOT":-1.84e-6,"MEAN_MOTION_DDOT":0}]
